{"type":"FeatureCollection","features":[{"type":"Feature","geometry":{"type":"Polygon","coordinates":[[[118.18770402,29.39686836],[118.18317195,29.40878233],[118.17481791,29.40633146],[118.14475677,29.41501865],[118.12617615,29.43181281],[118.1247328,29.44262917],[118.12980397,29.45345177],[118.13024232,29.46700242],[118.11909051,29.47015957],[118.12345413,29.48108278],[118.1385248,29.49310156],[118.12522804,29.51469376],[118.11890768,29.51454986],[118.10326407,29.52636557],[118.10212746,29.53646382],[118.0765051,29.54095473],[118.05224123,29.54181621],[118.04361147,29.54896764],[118.04241747,29.5571744],[118.02219697,29.57638254],[117.99577079,29.57753431],[117.97894401,29.56011296],[117.97022322,29.5702913],[117.95413569,29.57185494],[117.9367145,29.55392428],[117.92784841,29.56078195],[117.90006092,29.55360708],[117.88895584,29.5460272],[117.87623325,29.54613546],[117.87309292,29.5577971],[117.86058405,29.55754347],[117.85161923,29.564848],[117.82686386,29.56558434],[117.82274736,29.57191362],[117.80690039,29.57844178],[117.78898955,29.56960745],[117.78092187,29.56120694],[117.76918702,29.57504776],[117.76508777,29.56232598],[117.75129494,29.56429595],[117.73561128,29.55346768],[117.72411387,29.54939306],[117.71171953,29.56265165],[117.70414799,29.55280778],[117.68457937,29.55681515],[117.6751401,29.57071713],[117.67977856,29.5775724],[117.67776132,29.59448942],[117.66570617,29.59661882],[117.65779793,29.61300975],[117.6428821,29.61720731],[117.62195047,29.60814727],[117.6073961,29.59295425],[117.59262379,29.5856252],[117.57746734,29.5951281],[117.55235504,29.5928748],[117.53420238,29.59959983],[117.5257472,29.60764923],[117.51819519,29.63220795],[117.52021444,29.64560339],[117.52608306,29.65250989],[117.52249642,29.66202984],[117.50923383,29.66750508],[117.50424448,29.6743199],[117.49420498,29.66474672],[117.4678936,29.66683453],[117.46972547,29.68154495],[117.46423178,29.68726427],[117.44562627,29.69341405],[117.44692056,29.70872969],[117.45323158,29.71820875],[117.44617889,29.72759239],[117.45468532,29.73524515],[117.44127373,29.74704031],[117.44180259,29.76311453],[117.43062985,29.76127778],[117.41595562,29.77790941],[117.41554973,29.78689797],[117.40675279,29.79201256],[117.40358185,29.80269275],[117.41251658,29.80989998],[117.41134133,29.82218463],[117.42472297,29.84501411],[117.41166156,29.85355516],[117.38978817,29.8498417],[117.38291382,29.84528088],[117.37917734,29.8320724],[117.36388072,29.81498713],[117.35654251,29.81547696],[117.34332114,29.82697212],[117.33760369,29.8385051],[117.34154796,29.84666994],[117.33258436,29.85792324],[117.31736283,29.84789851],[117.3124113,29.84030727],[117.29864837,29.84148661],[117.28390814,29.83713031],[117.28967014,29.82848482],[117.27014084,29.82768409],[117.26578824,29.83488745],[117.25326831,29.83489131],[117.24194357,29.84368992],[117.23838898,29.85311907],[117.25061962,29.86186456],[117.26145168,29.88447917],[117.25043101,29.91195814],[117.24040709,29.9182678],[117.22482974,29.91814238],[117.20309989,29.93262976],[117.19540271,29.9270803],[117.17460547,29.92481042],[117.16549448,29.92004685],[117.15736712,29.92366347],[117.13699687,29.91451628],[117.12276773,29.90200938],[117.12006795,29.89339619],[117.12858923,29.88332483],[117.12391158,29.86457563],[117.09695708,29.8539748],[117.08560844,29.83929216],[117.07723173,29.83990245],[117.06664029,29.82991313],[117.07013693,29.82446012],[117.0898064,29.81825365],[117.10540429,29.80061706],[117.11772517,29.80283066],[117.12125811,29.79445802],[117.13370534,29.78845529],[117.12816228,29.77495624],[117.10904915,29.76270437],[117.09908107,29.75230114],[117.11495343,29.72776402],[117.10910227,29.70997325],[117.08821997,29.70795304],[117.08022275,29.70152851],[117.06694177,29.70060213],[117.06031095,29.69228958],[117.0460572,29.69229853],[117.03220877,29.68235703],[117.0123786,29.68983851],[116.98762341,29.68420361],[116.97156593,29.66437995],[116.96125892,29.65561419],[116.94274589,29.65386279],[116.9345609,29.64759194],[116.92489615,29.64937158],[116.9194789,29.64181304],[116.89224236,29.62672315],[116.87553954,29.61955566],[116.86648288,29.60406038],[116.85609044,29.60129837],[116.84405766,29.58719388],[116.84275266,29.57867795],[116.83229383,29.5718564],[116.79218353,29.56595266],[116.77849114,29.5708985],[116.77439989,29.58026034],[116.78202353,29.59383891],[116.75712247,29.59883201],[116.73356317,29.5942757],[116.73374636,29.58732272],[116.71501039,29.56930303],[116.714205,29.5866202],[116.70822082,29.59416162],[116.67944932,29.60893134],[116.67840193,29.62094047],[116.65091903,29.6373281],[116.64541142,29.64593882],[116.65455306,29.66156755],[116.6686648,29.67151457],[116.68378703,29.67593077],[116.66726685,29.69134002],[116.64700046,29.69075654],[116.64414856,29.6986543],[116.651815,29.70469716],[116.66333971,29.70166304],[116.67054249,29.71495891],[116.67097919,29.72890617],[116.68225277,29.74221564],[116.70402897,29.74617879],[116.71093806,29.76289096],[116.72008326,29.77374031],[116.73135734,29.77648031],[116.73804418,29.79249839],[116.75397229,29.80222099],[116.75763675,29.80829079],[116.78201925,29.79429779],[116.80363846,29.81916487],[116.81573139,29.81798658],[116.82398306,29.82595332],[116.81737007,29.83748892],[116.83785442,29.84857477],[116.8478417,29.86157359],[116.88081543,29.89627136],[116.88135724,29.90736245],[116.89278658,29.91320079],[116.88749805,29.92530816],[116.89032915,29.94263107],[116.8989041,29.94735235],[116.89407694,29.96884127],[116.8821442,29.97063083],[116.87974748,29.97766328],[116.86338566,29.98405316],[116.84758399,29.97377529],[116.83060151,29.97320426],[116.82146807,29.97950693],[116.82471837,29.99146325],[116.81749335,30.00644238],[116.79602635,29.99867572],[116.78326029,30.01683206],[116.7691233,30.04376404],[116.74311757,30.05852618],[116.72816002,30.05592833],[116.7077369,30.06105682],[116.66886664,30.07752626],[116.6358746,30.07895071],[116.61205246,30.0753017],[116.58881373,30.05997102],[116.57161247,30.03288617],[116.5650226,30.0137642],[116.56143429,29.99129018],[116.56454233,29.95598298],[116.55339339,29.93677354],[116.55299621,29.92437299],[116.54155371,29.90763417],[116.5250486,29.90123281],[116.48726807,29.90419626],[116.47113898,29.90254037],[116.45759684,29.89667408],[116.42565222,29.87603244],[116.37827801,29.85473596],[116.34785518,29.83780659],[116.33454323,29.8357537],[116.31650739,29.82074585],[116.27530278,29.79261337],[116.25800187,29.78373716],[116.24101156,29.79446379],[116.23370649,29.80843632],[116.22049725,29.8238672],[116.19796832,29.83190677],[116.15819821,29.83190512],[116.1328645,29.82670667],[116.10343109,29.81312969],[116.07733942,29.79547053],[116.05136521,29.7666789],[116.03024948,29.75362594],[115.99427812,29.74209871],[115.95684488,29.72574095],[115.92739042,29.7208436],[115.91309959,29.72371431],[115.83965154,29.74800299],[115.80550382,29.77201437],[115.76381491,29.79088307],[115.74412648,29.80808742],[115.69953544,29.84003776],[115.67490834,29.850831],[115.66144429,29.85310751],[115.61961336,29.8412578],[115.54718614,29.83834219],[115.50600845,29.84230976],[115.50039285,29.82466828],[115.47834523,29.81909323],[115.46505909,29.80978685],[115.47045498,29.80270458],[115.47041239,29.78213673],[115.4585044,29.77065383],[115.45994915,29.76354122],[115.47130464,29.75614472],[115.46950333,29.74644256],[115.44824012,29.72462363],[115.43888875,29.72642101],[115.43374106,29.71726424],[115.41309135,29.69974945],[115.40906779,29.68098479],[115.39479051,29.68290357],[115.37013875,29.66671985],[115.35779971,29.65562554],[115.33285432,29.65296875],[115.32014793,29.64750257],[115.31531514,29.63889681],[115.30211604,29.63999954],[115.28294281,29.62219284],[115.26568403,29.62498322],[115.25279623,29.64382866],[115.26819534,29.64988187],[115.25945681,29.65994956],[115.24604403,29.660241],[115.22605018,29.65372404],[115.14465719,29.66092353],[115.12974294,29.67818141],[115.12947883,29.68279783],[115.11032459,29.68488868],[115.10150957,29.6666088],[115.10435065,29.66059622],[115.1235204,29.65131243],[115.1355255,29.65421013],[115.1388934,29.64216883],[115.12656972,29.63300913],[115.12377135,29.60253779],[115.12918769,29.5923269],[115.15262453,29.60494704],[115.16986448,29.60073958],[115.17238943,29.59274045],[115.15225048,29.58717767],[115.14809663,29.5780495],[115.1522646,29.56686906],[115.14736871,29.55890246],[115.14855249,29.54391215],[115.14165312,29.53415565],[115.14915847,29.52905631],[115.15547248,29.51085726],[115.14891171,29.50858863],[115.12870095,29.51450527],[115.12155083,29.51104998],[115.09422257,29.5229413],[115.08431066,29.53197091],[115.09420505,29.55221177],[115.08177268,29.56274125],[115.06393411,29.55966],[115.05148097,29.55337547],[115.04209647,29.55450869],[115.02643253,29.54998675],[115.01355421,29.55752065],[115.00739452,29.5674019],[114.99276719,29.57341966],[114.98777355,29.56500893],[114.97313204,29.56535438],[114.96737427,29.55519828],[114.95257459,29.55660678],[114.94279028,29.54578962],[114.94244149,29.52951204],[114.95865563,29.52832898],[114.96678519,29.52365029],[114.95716751,29.50565421],[114.94325044,29.49872153],[114.93082442,29.49805341],[114.9183992,29.50391876],[114.91210558,29.51199911],[114.89511641,29.50919394],[114.90340035,29.52296381],[114.89067407,29.53045914],[114.88507309,29.50423592],[114.87911021,29.50329759],[114.86740651,29.48266737],[114.85669915,29.47985772],[114.85723244,29.47043777],[114.86994577,29.47203447],[114.87783275,29.4534931],[114.87810555,29.44280665],[114.8872464,29.44126119],[114.89746564,29.45050952],[114.90852378,29.45195051],[114.91828202,29.4625024],[114.90160217,29.47035951],[114.91229192,29.4849625],[114.92200717,29.49074442],[114.93477772,29.48658934],[114.92984672,29.47831969],[114.94440991,29.46631809],[114.92927654,29.44842454],[114.92638485,29.42594766],[114.9218293,29.41930054],[114.90562766,29.42464577],[114.88993438,29.39995007],[114.86313834,29.40778101],[114.82323667,29.39515404],[114.80135619,29.38005771],[114.77872818,29.38657266],[114.76829212,29.37744681],[114.76037548,29.3770081],[114.75310452,29.36508737],[114.73563487,29.36911369],[114.73868643,29.38718538],[114.73229995,29.39480289],[114.70742499,29.39727172],[114.67812684,29.38913047],[114.66809806,29.39600284],[114.65442185,29.39366158],[114.63921546,29.38330066],[114.61934615,29.38459339],[114.6078815,29.37674064],[114.60074084,29.36510902],[114.58038213,29.35335074],[114.56085027,29.345834],[114.55228026,29.34755866],[114.54594473,29.33915282],[114.50891422,29.32585002],[114.49752178,29.32557457],[114.47504662,29.33188854],[114.45763155,29.32384507],[114.45039986,29.32987572],[114.45110315,29.33862794],[114.43424038,29.34452496],[114.41535279,29.33694267],[114.40786531,29.33935474],[114.38391363,29.33631631],[114.36927428,29.32376585],[114.35656364,29.32768812],[114.34759325,29.32350276],[114.33007736,29.33519237],[114.31914536,29.36009728],[114.30420089,29.36822943],[114.29056882,29.36077495],[114.26889696,29.35690379],[114.25190118,29.34596827],[114.25530245,29.32539044],[114.24580564,29.30687013],[114.25599851,29.29390289],[114.24156327,29.26953002],[114.24992848,29.24930186],[114.24953351,29.23865618],[114.23579259,29.23184296],[114.22329748,29.23980202],[114.19997951,29.22671949],[114.18791698,29.22673779],[114.17259343,29.21525094],[114.16021292,29.22001414],[114.137079,29.21286341],[114.12384506,29.21833187],[114.11792424,29.21322787],[114.10655492,29.21588517],[114.08581636,29.21492055],[114.06335586,29.20000723],[114.05567791,29.18642492],[114.04494823,29.1769877],[114.03459371,29.17327777],[114.03147856,29.16317994],[114.01754092,29.14750049],[114.00208312,29.14197771],[113.99149682,29.13083926],[113.98015601,29.12869183],[113.97861069,29.1186338],[113.96235014,29.10037646],[113.94805263,29.10043968],[113.94781616,29.07109808],[113.94072932,29.06320283],[113.9394856,29.04759995],[113.94359143,29.03618727],[113.94255905,29.01673545],[113.94903927,29.01535805],[113.95572014,29.00151235],[113.94973606,28.98398929],[113.9565167,28.96253418],[113.95496255,28.9571045],[113.96816923,28.94013758],[113.98288561,28.95338052],[114.00340522,28.95737302],[114.004645,28.94761616],[113.99686621,28.92418671],[114.01181836,28.91964429],[114.02740027,28.89730418],[114.03872173,28.9093801],[114.04708478,28.90880569],[114.0628338,28.89445489],[114.05178599,28.87048007],[114.05742248,28.86472019],[114.05394479,28.85428347],[114.0728724,28.83525649],[114.09023535,28.83467869],[114.1185164,28.84704198],[114.12394409,28.83493433],[114.13603284,28.83053268],[114.14875548,28.83380718],[114.14748066,28.80790875],[114.13602817,28.79377998],[114.13264732,28.78360685],[114.14928617,28.77479769],[114.15199662,28.76663282],[114.14164181,28.73552167],[114.14352695,28.72411671],[114.13738202,28.71817801],[114.13655897,28.70708133],[114.12287779,28.70341065],[114.1170559,28.68865193],[114.12757515,28.67234506],[114.12437284,28.66672621],[114.12846451,28.64523919],[114.11636382,28.6246397],[114.1282416,28.61193248],[114.11436177,28.58938221],[114.10089339,28.58763948],[114.09095369,28.57464078],[114.09122212,28.56716667],[114.08030032,28.56008787],[114.09528612,28.54234864],[114.10793484,28.54287453],[114.13178142,28.5380938],[114.13508382,28.52442254],[114.15044858,28.51024071],[114.16958221,28.49887739],[114.19153473,28.50161617],[114.21332839,28.48696749],[114.21270509,28.47051699],[114.18734494,28.45203344],[114.18044724,28.43639351],[114.20087646,28.42340323],[114.21042229,28.40408182],[114.24863891,28.39804263],[114.25429852,28.38026878],[114.24520756,28.36751588],[114.25651355,28.35509641],[114.2426959,28.34535245],[114.24956942,28.33022786],[114.24540509,28.32029303],[114.22781805,28.31458841],[114.22331632,28.30472743],[114.20938118,28.29707452],[114.20536467,28.29060991],[114.19413927,28.29556893],[114.18930745,28.28920533],[114.19327054,28.27493027],[114.17881649,28.27089083],[114.17582224,28.25345554],[114.16387,28.25761344],[114.13963336,28.25081394],[114.13728564,28.240154],[114.12448413,28.23229893],[114.12127129,28.2243662],[114.10232668,28.20794956],[114.09883308,28.18495814],[114.07663133,28.18217342],[114.06379699,28.17478156],[114.0477198,28.17392961],[114.03665764,28.17682605],[114.01152529,28.1775683],[113.98728133,28.16161286],[114.00281526,28.14125622],[114,28.13073434],[114.01159672,28.12429592],[114.01219806,28.10414478],[114.03084531,28.08139047],[114.04163012,28.06066037],[114.02210974,28.04505631],[114.02020913,28.03441453],[113.99637764,28.04399696],[113.95832716,28.04217153],[113.95145781,28.03126194],[113.95758585,28.01875882],[113.93983347,28.01724555],[113.92601243,28.01968162],[113.92490367,28.0086158],[113.91250042,28.00476754],[113.90825816,27.99373361],[113.89777832,27.9913246],[113.87224268,27.99572026],[113.86860905,28.00330245],[113.85694537,28.00967915],[113.84542443,27.99167101],[113.84384366,27.97374216],[113.82254956,27.97521933],[113.81896189,27.98374141],[113.79818673,27.97886764],[113.78682294,27.96682619],[113.78478946,27.9568118],[113.7664676,27.95704975],[113.74383179,27.93373698],[113.73969867,27.92040605],[113.72980475,27.90791914],[113.72367028,27.89270102],[113.72256655,27.87995521],[113.73101363,27.87103223],[113.73827099,27.87245991],[113.75298206,27.86031037],[113.754573,27.84421215],[113.76107816,27.82248062],[113.75945254,27.80559904],[113.74343022,27.78557158],[113.72326019,27.77172915],[113.71541928,27.75837537],[113.70540608,27.75435222],[113.69214073,27.74098473],[113.69593619,27.72442475],[113.67016074,27.70531012],[113.65828,27.68927824],[113.65271657,27.6705594],[113.64622883,27.6629866],[113.61435091,27.64211498],[113.6019409,27.63897057],[113.60369825,27.62691766],[113.59949193,27.60837415],[113.60006301,27.59485881],[113.59397159,27.56992207],[113.58216946,27.55945243],[113.57550696,27.54784066],[113.57587137,27.53516831],[113.59120661,27.51927933],[113.603928,27.51654203],[113.6150949,27.52863785],[113.62290583,27.52233284],[113.62138297,27.50101287],[113.6088116,27.48109202],[113.59059276,27.47065423],[113.59416194,27.45932472],[113.59187766,27.44847437],[113.59796908,27.44009867],[113.59119036,27.4315329],[113.595138,27.42234627],[113.62078079,27.41867563],[113.62144309,27.40390456],[113.60025336,27.39498409],[113.59454266,27.38889267],[113.59988204,27.37688167],[113.5979081,27.3626935],[113.61374157,27.35229739],[113.63651238,27.35624785],[113.65203043,27.35405736],[113.66929969,27.33013483],[113.69891056,27.33642119],[113.70876297,27.34491217],[113.71045367,27.35259726],[113.72799263,27.34540628],[113.73944604,27.35806244],[113.76887031,27.36214468],[113.77861776,27.35881629],[113.79051419,27.36904052],[113.80359303,27.36981134],[113.81944763,27.36334983],[113.82350241,27.37436343],[113.83923949,27.37663295],[113.85278734,27.37011912],[113.85913872,27.38089768],[113.86734684,27.37031974],[113.86686443,27.34488212],[113.85512292,27.33220265],[113.84518724,27.31417899],[113.84975618,27.29682525],[113.86596281,27.29740683],[113.8633993,27.28604162],[113.85118349,27.27006378],[113.85104072,27.26007004],[113.82434317,27.21524099],[113.82734129,27.2063894],[113.81675443,27.19358435],[113.80890819,27.1756145],[113.79620484,27.16592715],[113.78495285,27.14843031],[113.77637323,27.14756913],[113.76379762,27.12183598],[113.76642628,27.09731732],[113.77625982,27.08890196],[113.79305719,27.10029714],[113.80119271,27.0966325],[113.80768665,27.04790268],[113.81750325,27.04612481],[113.83709861,27.03154422],[113.83590734,27.02164805],[113.85641009,27.02070882],[113.85889294,27.00051843],[113.87117096,26.99280898],[113.87320374,26.985716],[113.88906637,26.96629643],[113.90390077,26.96240839],[113.91673994,26.96286682],[113.92176163,26.95164473],[113.89613871,26.92736546],[113.89492471,26.91173363],[113.88473272,26.89803332],[113.88915969,26.88416279],[113.88587721,26.86532103],[113.87011795,26.86088848],[113.85390609,26.8392671],[113.85247429,26.83022657],[113.83262817,26.81171402],[113.8299696,26.80023292],[113.84086094,26.79070156],[113.84805761,26.77099282],[113.84681946,26.75101448],[113.85054422,26.72139067],[113.85738789,26.70531418],[113.85683184,26.67240296],[113.86085594,26.65629443],[113.87564915,26.66160874],[113.8802022,26.6390372],[113.89230711,26.63475701],[113.90223887,26.61729287],[113.92821116,26.6168211],[113.95118071,26.61979116],[113.96733895,26.61715369],[113.99139855,26.61891578],[114.01271747,26.60446546],[114.01125052,26.59185285],[114.03651955,26.58390641],[114.05639134,26.58420662],[114.07427357,26.57810464],[114.0891951,26.58082503],[114.10245112,26.57902385],[114.10183401,26.56390203],[114.09030914,26.54952478],[114.07735928,26.51566336],[114.07930283,26.50675201],[114.06664304,26.48887154],[114.06837933,26.48403724],[114.09401131,26.48181132],[114.09344371,26.4673247],[114.08659444,26.46037584],[114.08245436,26.44257854],[114.08328726,26.41350119],[114.07815695,26.40842705],[114.06067665,26.41251468],[114.04819379,26.39692574],[114.02623342,26.37855079],[114.03343134,26.36645315],[114.03607074,26.34659488],[114.04218722,26.34146358],[114.03012829,26.32868566],[114.03512837,26.31274513],[114.01523999,26.29303238],[114.01783256,26.27539182],[114.02418126,26.26965257],[113.98176128,26.24967755],[113.9741531,26.24153849],[113.9759747,26.23115354],[113.96778936,26.22106462],[113.96403582,26.2044116],[113.94252984,26.19500083],[113.9486665,26.18364701],[113.94740876,26.17339167],[113.93760592,26.16809088],[113.95863805,26.15497233],[113.9789393,26.17035216],[113.98746206,26.17143798],[114.00735477,26.18695329],[114.02188818,26.18344019],[114.0286435,26.19177805],[114.03877539,26.18444747],[114.0506768,26.18657714],[114.0511199,26.16779084],[114.06029305,26.17264148],[114.08204273,26.17061336],[114.09536106,26.18249967],[114.09677132,26.19052813],[114.11627989,26.1992547],[114.1459885,26.20640505],[114.17229105,26.21688284],[114.18126153,26.20107663],[114.21180142,26.20630898],[114.21721039,26.19286622],[114.22730048,26.18558392],[114.21345348,26.1688188],[114.22541797,26.15452979],[114.20917065,26.14009934],[114.2004141,26.13727734],[114.18400361,26.12571868],[114.16441613,26.12671436],[114.14983674,26.11896758],[114.10263605,26.10376669],[114.11652527,26.08894728],[114.11049468,26.07950971],[114.09814197,26.07458959],[114.07558958,26.07187001],[114.06428878,26.08331987],[114.04000357,26.0807848],[114.03017193,26.0560333],[114.03331525,26.05095726],[114.02279769,26.03452479],[114.00269689,26.01667563],[114.00453563,26.00480007],[114.01278498,25.99617285],[114.02234679,25.99453939],[114.02329793,25.98491792],[114.01590431,25.97976001],[114.01601599,25.9579549],[114.02621329,25.94441116],[114.01613238,25.92248627],[114.01763246,25.90648169],[114.02243329,25.89678594],[114.00877832,25.8882614],[114.00424119,25.87367442],[113.980553,25.85685055],[113.96426902,25.83540402],[113.96337801,25.81049762],[113.95286477,25.78834495],[113.95381864,25.78262113],[113.94279082,25.76464915],[113.91364382,25.74370292],[113.90860255,25.72991434],[113.9118805,25.71228652],[113.90812357,25.70321632],[113.91726655,25.695288],[113.924098,25.68256939],[113.92734961,25.66704851],[113.93709507,25.65496962],[113.946272,25.63796686],[113.94443626,25.62397931],[113.95407012,25.61120325],[113.97664096,25.60682171],[113.97880095,25.6026741],[113.97225442,25.58531075],[113.97264278,25.57587807],[113.9881031,25.56776153],[113.98296349,25.55898286],[113.97895083,25.53142161],[113.95463234,25.52781082],[113.94748229,25.50808352],[113.952096,25.50353195],[113.94676602,25.48963589],[113.95460626,25.48514403],[113.9511009,25.47682055],[113.93518712,25.4665826],[113.93455515,25.4528152],[113.9393842,25.44459279],[113.9563241,25.45681127],[114.00257835,25.44084155],[113.97745739,25.41728972],[113.98011565,25.40651164],[113.9963798,25.40073257],[114.00692251,25.39005542],[114.01841604,25.38699707],[114.02965762,25.39542342],[114.03788993,25.3937677],[114.02428869,25.37749243],[114.03209792,25.37197709],[114.03817048,25.36030203],[114.02947441,25.33920152],[114.02180522,25.33372696],[114.02878941,25.32355207],[114.04691237,25.31559032],[114.04119888,25.30984939],[114.02823642,25.31058175],[114.02090895,25.30513608],[114.02163272,25.29274181],[114.01103326,25.28268488],[114.01573702,25.27306221],[114.02484636,25.26998995],[114.02406017,25.25852101],[114.03495563,25.25385362],[114.05066746,25.28110594],[114.07454172,25.28083797],[114.1116621,25.30594146],[114.12349818,25.30797527],[114.13451157,25.31484997],[114.142326,25.31088839],[114.15046304,25.31638405],[114.16180995,25.31694663],[114.17450228,25.30916623],[114.1868076,25.32093105],[114.19988133,25.3145644],[114.20813541,25.30423342],[114.22141317,25.29831609],[114.23086135,25.30372254],[114.25889954,25.29407653],[114.26779929,25.30528407],[114.28967202,25.30162176],[114.29615259,25.30733029],[114.30121163,25.33607809],[114.3103815,25.34220678],[114.33314875,25.33721541],[114.34994561,25.33000624],[114.36373229,25.33017276],[114.37549287,25.31867483],[114.38105434,25.32613642],[114.39507922,25.3295289],[114.39766371,25.33711849],[114.4189141,25.33963643],[114.42551187,25.3486971],[114.42651851,25.36088561],[114.43196869,25.36643832],[114.43445978,25.38071101],[114.44269367,25.38939352],[114.45357564,25.39074013],[114.45803129,25.38293861],[114.47605408,25.37337044],[114.48192001,25.37948107],[114.50390673,25.38661076],[114.50144039,25.40389021],[114.51672338,25.40575059],[114.52427296,25.41787674],[114.53348176,25.42177563],[114.54595534,25.41657155],[114.55142671,25.40881394],[114.56242153,25.40789158],[114.58063273,25.40124573],[114.59693258,25.38820578],[114.59352201,25.3636103],[114.60693007,25.36220504],[114.62122829,25.33940801],[114.62016672,25.33404526],[114.63261428,25.32693445],[114.65378709,25.33061148],[114.6635965,25.32880662],[114.67498918,25.3159481],[114.68752554,25.32616025],[114.69787664,25.31817965],[114.7103278,25.31853159],[114.72664908,25.2880764],[114.73876271,25.27756724],[114.74131032,25.26169353],[114.73300496,25.24142311],[114.73226603,25.22778754],[114.72034471,25.23673944],[114.70716886,25.22390386],[114.7000266,25.22525899],[114.6898984,25.21402582],[114.6962087,25.20415443],[114.69071567,25.19860002],[114.67440762,25.19806119],[114.67988452,25.17592935],[114.69865805,25.16620405],[114.71578403,25.16624385],[114.73105501,25.15402743],[114.73040375,25.1436864],[114.73493776,25.1303119],[114.72539173,25.1186165],[114.71278357,25.11846753],[114.70565406,25.11019178],[114.6920438,25.10673232],[114.67210861,25.1102777],[114.65924266,25.10161647],[114.66128691,25.09312245],[114.65344515,25.08219413],[114.63970736,25.07917919],[114.63802554,25.07389686],[114.61776785,25.076415],[114.59911661,25.08795604],[114.59193447,25.07906546],[114.57484707,25.08401994],[114.55673716,25.08178295],[114.55101166,25.06707277],[114.53551203,25.05211026],[114.53758475,25.04131821],[114.53398306,25.02952979],[114.52175732,25.02319136],[114.50993214,25.02773016],[114.5090414,25.0080925],[114.49280523,25.00362073],[114.47701063,25.00971928],[114.45113214,24.99693561],[114.4507518,24.97964409],[114.43330074,24.97424585],[114.4161388,24.97493139],[114.41803434,24.95917455],[114.39714879,24.9569714],[114.39078847,24.95285293],[114.3898536,24.93900479],[114.397079,24.93050579],[114.39538496,24.92083441],[114.3849513,24.91378987],[114.39669328,24.90574745],[114.40054165,24.89804618],[114.39858338,24.88043891],[114.38329108,24.8650145],[114.37124834,24.86247641],[114.36847996,24.85323104],[114.35768849,24.84627075],[114.35056429,24.82910926],[114.33660253,24.81106489],[114.34294879,24.8024549],[114.33755705,24.79310672],[114.32665597,24.78847186],[114.32692115,24.78163842],[114.33879558,24.77140562],[114.32805169,24.74947029],[114.31251312,24.74425925],[114.30465457,24.7345272],[114.28096401,24.73293492],[114.2715062,24.71747166],[114.2743439,24.70770547],[114.2506005,24.70027314],[114.2256861,24.70237989],[114.19984947,24.69091207],[114.18381012,24.6978443],[114.1639367,24.6940073],[114.18047834,24.669867],[114.16747207,24.65662385],[114.17067417,24.6483623],[114.18651598,24.65614753],[114.19488708,24.65531517],[114.22280698,24.6417874],[114.23867448,24.64718908],[114.25312688,24.6464438],[114.25991498,24.63373065],[114.27459705,24.63373347],[114.28539773,24.62245984],[114.28579115,24.60232306],[114.29704839,24.58954492],[114.29537764,24.58234695],[114.30345339,24.57635677],[114.31774528,24.58275974],[114.32383835,24.57865368],[114.33341361,24.58678424],[114.35862932,24.58817839],[114.36164251,24.5799254],[114.37183502,24.57480108],[114.37545381,24.56401676],[114.38550946,24.55851563],[114.38372909,24.53860082],[114.3981988,24.53081001],[114.40202564,24.52028386],[114.39796544,24.50939348],[114.40984167,24.49939135],[114.41693186,24.49911153],[114.42400714,24.4877165],[114.43759357,24.50147063],[114.44614007,24.50226926],[114.46553164,24.51377066],[114.4734345,24.52783694],[114.49995527,24.54425603],[114.51482196,24.54983372],[114.52402251,24.56202111],[114.53036222,24.56134999],[114.54049198,24.54702914],[114.55957586,24.54026034],[114.57057056,24.54535519],[114.58596526,24.53934319],[114.59426668,24.55560989],[114.60379194,24.56728715],[114.62123752,24.57995609],[114.63498961,24.57391494],[114.65936802,24.58668845],[114.67854788,24.54423202],[114.69457897,24.54088718],[114.70124799,24.53087307],[114.71399558,24.55805125],[114.72134705,24.5539289],[114.73282116,24.56754969],[114.72808754,24.57927793],[114.73137043,24.5878191],[114.72439894,24.59391575],[114.72758082,24.6152333],[114.74509556,24.62062432],[114.75818797,24.61228288],[114.77253461,24.60979643],[114.77831684,24.61631974],[114.79419089,24.60483111],[114.80305929,24.60325135],[114.8206769,24.59207105],[114.83106873,24.60307383],[114.8442252,24.60619689],[114.85552183,24.59784142],[114.84890166,24.5842259],[114.86217152,24.56538812],[114.87481263,24.5700379],[114.88121256,24.58280768],[114.8894583,24.58591512],[114.8928046,24.6052332],[114.89798059,24.61182879],[114.89497444,24.62821327],[114.89751778,24.64070038],[114.90399215,24.64769266],[114.90344599,24.66082396],[114.90797977,24.66827165],[114.92820148,24.66963489],[114.93644765,24.65239079],[114.94833556,24.65577784],[114.95924545,24.66899967],[114.97525332,24.67605218],[114.98458021,24.67489174],[114.99935775,24.68336914],[115.0025947,24.67585982],[115.03277689,24.68307173],[115.03953295,24.69157537],[115.03911305,24.70104548],[115.06872931,24.70706995],[115.0823132,24.69576053],[115.09054714,24.67725236],[115.10007533,24.67011543],[115.1342935,24.68439041],[115.1426681,24.69248117],[115.18059905,24.70104564],[115.18038169,24.71090265],[115.19295154,24.71446151],[115.220919,24.72959683],[115.23044046,24.72709227],[115.24011254,24.73492252],[115.25643749,24.73213798],[115.26507801,24.75213856],[115.27572919,24.75736071],[115.30423714,24.76147674],[115.31572159,24.75091144],[115.33469768,24.75089794],[115.35548049,24.73752179],[115.35937896,24.74167105],[115.35855421,24.76307468],[115.36820491,24.77716946],[115.38267786,24.77407737],[115.38791019,24.78417458],[115.4031365,24.79756007],[115.43851445,24.77534704],[115.44474783,24.76895864],[115.46973728,24.76655353],[115.47654072,24.75378386],[115.49270594,24.74313906],[115.49133086,24.73628821],[115.50175836,24.72822635],[115.50325318,24.71892215],[115.52110253,24.71986643],[115.52404494,24.71545018],[115.51580788,24.70388351],[115.55157664,24.68658733],[115.55003784,24.67443255],[115.55499577,24.66138672],[115.55268519,24.65208533],[115.55707501,24.64075723],[115.57339592,24.6161782],[115.59472621,24.61877787],[115.60173574,24.62896121],[115.62637872,24.61540603],[115.64870815,24.6173881],[115.65338668,24.61054798],[115.66766652,24.60767445],[115.68062437,24.58816132],[115.68296218,24.57325687],[115.67296367,24.56827388],[115.67959712,24.55049536],[115.69739814,24.54930745],[115.70872868,24.54042768],[115.74784507,24.54877786],[115.78548205,24.5715329],[115.80319111,24.56233973],[115.80636916,24.57002963],[115.81897117,24.56210885],[115.83509531,24.56761171],[115.83548678,24.58782463],[115.82755834,24.59928111],[115.81749004,24.60167678],[115.80961139,24.61429632],[115.79590045,24.62339697],[115.79433333,24.63174009],[115.78234589,24.63420085],[115.78619048,24.65082056],[115.77735399,24.66605321],[115.76140957,24.66718621],[115.7757256,24.68055],[115.792239,24.67709334],[115.79992996,24.68821488],[115.79644793,24.70872238],[115.78855285,24.7025885],[115.76563782,24.7117667],[115.76670499,24.7288129],[115.75179488,24.73742255],[115.75252577,24.75331508],[115.760303,24.7664679],[115.77312938,24.77657026],[115.75897516,24.79561204],[115.76779544,24.80360557],[115.76812772,24.81750888],[115.77430408,24.82302058],[115.77197301,24.83363107],[115.78341256,24.84218681],[115.77933532,24.85194713],[115.78926975,24.86543209],[115.80365077,24.864352],[115.79939773,24.8821449],[115.8041362,24.89357868],[115.81580683,24.90982893],[115.83308125,24.90944607],[115.84541709,24.90265945],[115.85317039,24.8936477],[115.8616677,24.89240393],[115.8547468,24.86757336],[115.86866877,24.87343387],[115.88735699,24.87206237],[115.9013409,24.89073804],[115.88019932,24.90048745],[115.88131049,24.91719476],[115.87405025,24.93735933],[115.88748286,24.94080001],[115.88028309,24.95421802],[115.86782851,24.95737337],[115.86517638,24.96855717],[115.86859677,24.97622178],[115.87929336,24.98013891],[115.89037899,24.96561046],[115.9007606,24.96734607],[115.912185,24.96032163],[115.91938128,24.9668054],[115.91119318,24.9745762],[115.89722087,24.99507613],[115.87757755,25.0013383],[115.87287754,25.00624468],[115.86964664,25.02375379],[115.88543563,25.02782205],[115.8942305,25.04135957],[115.92457731,25.05232376],[115.90942803,25.06782888],[115.91176113,25.07856478],[115.9021596,25.08831018],[115.89122116,25.09224553],[115.87814674,25.09119947],[115.87420885,25.09909017],[115.88042918,25.10723831],[115.87082915,25.11630456],[115.8698423,25.12658691],[115.88532888,25.12990851],[115.88193095,25.14373814],[115.87324585,25.15545149],[115.86413385,25.15150063],[115.84833232,25.15774199],[115.84845421,25.17893252],[115.85378835,25.18129815],[115.85149734,25.21404505],[115.86028366,25.21878404],[115.88619257,25.22022264],[115.90457031,25.23723888],[115.91541566,25.23404693],[115.92748036,25.23885118],[115.93503865,25.25693566],[115.94724982,25.27387963],[115.9422187,25.28740545],[115.94795302,25.29593104],[115.96387787,25.28843922],[115.97002182,25.29861414],[115.97923372,25.30125066],[115.98280494,25.29272301],[115.99881817,25.31043372],[116.00455788,25.32472274],[116.00055442,25.3424844],[115.99460602,25.35248184],[115.98631927,25.37749879],[116.00357113,25.39766869],[115.99732972,25.41175271],[116.00507442,25.41850835],[116.01771577,25.422244],[116.01926113,25.4398147],[116.00624844,25.45658626],[116.00978385,25.47255417],[116.00168793,25.47525767],[116.00348979,25.49028842],[116.00977642,25.50068029],[116.01010956,25.51098968],[116.03028289,25.51517107],[116.0302832,25.53709012],[116.03500968,25.55202255],[116.05166804,25.55079746],[116.05913222,25.56508685],[116.04827692,25.58639855],[116.04626545,25.60493197],[116.03574659,25.6089993],[116.04532301,25.63044923],[116.05549045,25.64271537],[116.06481504,25.6483432],[116.05253024,25.66390662],[116.05781174,25.66818638],[116.05440971,25.68990022],[116.06244042,25.69904468],[116.06255604,25.70812063],[116.08267459,25.69927988],[116.10523667,25.7075653],[116.10313227,25.72612252],[116.11356517,25.73543636],[116.11542048,25.74951828],[116.12473466,25.7642433],[116.14382586,25.76369478],[116.15514729,25.76962855],[116.16249011,25.75015068],[116.17321019,25.75689319],[116.17279144,25.7705276],[116.17794624,25.78030423],[116.16286193,25.79930338],[116.15471203,25.80202601],[116.15283474,25.81574638],[116.13837538,25.82148081],[116.12604242,25.83123718],[116.12521062,25.85542035],[116.14934761,25.88080203],[116.16683002,25.88110733],[116.17165902,25.896586],[116.18364049,25.904486],[116.19781037,25.9033106],[116.22038772,25.91203901],[116.22940965,25.90236994],[116.24232359,25.90673598],[116.25422374,25.90561446],[116.25837122,25.91649365],[116.27634169,25.91699599],[116.28235401,25.92227664],[116.29725517,25.92596839],[116.30594667,25.94084731],[116.31584268,25.94449473],[116.31908368,25.95870977],[116.33090173,25.95929673],[116.33907434,25.96534697],[116.36226146,25.96303143],[116.36394033,25.97673911],[116.35485785,25.99624521],[116.35678515,26.00520861],[116.36672228,26.00846321],[116.37766422,26.02870257],[116.39770984,26.04324426],[116.40391361,26.05752956],[116.41503119,26.05820631],[116.42193057,26.07668663],[116.44365313,26.08364935],[116.46301191,26.1027347],[116.48039899,26.1126058],[116.48645968,26.12361081],[116.48454887,26.13643183],[116.47646744,26.13996021],[116.47699497,26.16543551],[116.46900584,26.17788422],[116.46057518,26.17705484],[116.42123954,26.16098345],[116.3926391,26.16965382],[116.3864127,26.17514639],[116.39585085,26.19361687],[116.38745457,26.20178337],[116.38637645,26.22307481],[116.38184265,26.24141894],[116.39197524,26.24841736],[116.38826111,26.26344587],[116.39168153,26.27515396],[116.41571126,26.2837121],[116.41922576,26.293119],[116.41008461,26.30154682],[116.43002156,26.30739263],[116.43201976,26.32150156],[116.45178604,26.33716126],[116.45577434,26.3503138],[116.48166682,26.35967158],[116.49110909,26.37056622],[116.4949613,26.39231031],[116.50348906,26.38958631],[116.51205222,26.41369306],[116.53108304,26.40395834],[116.55162245,26.40273599],[116.55606185,26.38982435],[116.5528892,26.37279991],[116.56969607,26.37657523],[116.57629612,26.37004341],[116.59547358,26.37466368],[116.60570771,26.38771189],[116.60679074,26.39808047],[116.59895569,26.41107136],[116.60456629,26.43730297],[116.62653791,26.4522945],[116.62571565,26.46414482],[116.63152826,26.46716266],[116.63457488,26.48313128],[116.60667316,26.48079432],[116.59829971,26.4953419],[116.58421724,26.51018644],[116.58373429,26.52380321],[116.55838353,26.54937011],[116.54383948,26.55424006],[116.53608338,26.56741197],[116.54941187,26.58618277],[116.55785822,26.60643197],[116.55797643,26.63412409],[116.56245753,26.63925568],[116.54401461,26.65237326],[116.55081411,26.65984838],[116.53114669,26.66906741],[116.52771234,26.67654058],[116.51073745,26.69076702],[116.50621579,26.71337075],[116.51484385,26.72708946],[116.5285128,26.73639555],[116.53024728,26.74278516],[116.55608478,26.75844355],[116.55987478,26.76459203],[116.54981686,26.78871356],[116.53737664,26.81273113],[116.54509161,26.84121815],[116.55349909,26.8465892],[116.56134245,26.8700392],[116.57620402,26.86880175],[116.58664842,26.88160686],[116.58138826,26.8861582],[116.61493397,26.91377639],[116.61787295,26.92781267],[116.64471688,26.9468673],[116.64995407,26.96490298],[116.66609889,26.96844612],[116.68388142,26.98592837],[116.69358931,26.9921085],[116.73726802,26.99854533],[116.74330296,26.98631427],[116.75118223,26.9809792],[116.76507315,27.00325023],[116.77616625,27.00188604],[116.79505798,27.01422673],[116.80684894,27.01125659],[116.82060826,27.02374564],[116.82962487,27.02192659],[116.83676475,27.01075134],[116.85671268,27.0111291],[116.86500059,27.02540786],[116.87130684,27.02403935],[116.8946933,27.04066832],[116.90171079,27.03642613],[116.91372137,27.0383529],[116.91864036,27.02763735],[116.93480483,27.02193605],[116.94874432,27.04704269],[116.96219741,27.06180928],[116.96895833,27.061061],[116.98606143,27.07252268],[116.99847515,27.08538666],[117.01069495,27.09066526],[117.02999697,27.09164754],[117.04480564,27.10698019],[117.04473114,27.11871515],[117.03705168,27.13586342],[117.04354654,27.15580776],[117.06445899,27.18123725],[117.0803486,27.18765452],[117.0816177,27.1962211],[117.09212352,27.21038067],[117.09862132,27.20690498],[117.11543589,27.21470082],[117.11543938,27.22106646],[117.14494819,27.24505832],[117.15154653,27.26766926],[117.16106531,27.27197726],[117.16733461,27.29498674],[117.15437608,27.29717149],[117.15150641,27.30476746],[117.13251122,27.30523375],[117.13680424,27.32316497],[117.1092597,27.33173664],[117.09351742,27.34150236],[117.09762283,27.3508364],[117.09892829,27.37055481],[117.09429592,27.37782524],[117.10274248,27.39760809],[117.12095658,27.40789765],[117.12779259,27.42793284],[117.1200882,27.43893856],[117.12001716,27.45429409],[117.11175727,27.45483719],[117.1033545,27.46445699],[117.10677529,27.47925823],[117.10053572,27.49292375],[117.10846462,27.49914344],[117.09716824,27.51557119],[117.0981181,27.54266976],[117.08529278,27.55115337],[117.08346713,27.5612806],[117.06894598,27.56195567],[117.05296703,27.54725792],[117.04648415,27.55314479],[117.03704021,27.55081858],[117.01632565,27.55847003],[117.01245088,27.57521515],[117.01929283,27.59602158],[117.01162422,27.61610543],[117.00292296,27.6209128],[116.99852607,27.63066788],[117.00974112,27.63374553],[117.01670666,27.64502469],[117.01462091,27.65571052],[117.03507611,27.67162821],[117.04722259,27.67420479],[117.05799836,27.66908292],[117.07415121,27.65134358],[117.0761115,27.64179823],[117.08994824,27.6311091],[117.101844,27.63314356],[117.10049953,27.64609077],[117.10647904,27.6490135],[117.09654017,27.66641548],[117.09410791,27.67886187],[117.11223717,27.69761996],[117.12487952,27.69307254],[117.15163575,27.68844932],[117.17220873,27.68086741],[117.18122523,27.68651726],[117.19974406,27.68713647],[117.19809865,27.71257084],[117.22004811,27.72294463],[117.23575277,27.72009384],[117.24355505,27.72914081],[117.25935925,27.73194433],[117.26199534,27.74440567],[117.2735685,27.75110218],[117.27055386,27.76807903],[117.29250262,27.76710784],[117.30190696,27.77981154],[117.29199999,27.80447339],[117.29818799,27.82896108],[117.29712538,27.83938635],[117.28811842,27.84786244],[117.2721147,27.85021939],[117.27507551,27.87467958],[117.29282793,27.87377226],[117.30263837,27.87892575],[117.31188066,27.89732981],[117.3203985,27.8989684],[117.32974167,27.8918215],[117.33189211,27.88014218],[117.32746872,27.86715407],[117.33837924,27.85936918],[117.34806249,27.8678864],[117.36046143,27.88608994],[117.37857323,27.88938573],[117.40800729,27.90089782],[117.42369206,27.9138704],[117.4261785,27.92166692],[117.43771909,27.92900074],[117.44839895,27.94336444],[117.47184341,27.93342352],[117.47815378,27.94342996],[117.50032067,27.95720904],[117.50592325,27.97786967],[117.51545133,27.98616224],[117.52468115,27.9783495],[117.54265439,27.9718054],[117.55062789,27.97396254],[117.56061163,27.96008815],[117.55380158,27.94786217],[117.56496612,27.93759921],[117.56985955,27.9485755],[117.57942928,27.94142789],[117.58451118,27.91944603],[117.58054998,27.9080055],[117.59038196,27.90436144],[117.59885715,27.8901537],[117.59697004,27.87201085],[117.61709332,27.86264735],[117.64524766,27.85601246],[117.66314652,27.84370853],[117.66687726,27.83215847],[117.67601525,27.82625786],[117.68786089,27.82914731],[117.69808106,27.83674576],[117.71176512,27.81700198],[117.72610494,27.80378069],[117.73697124,27.80442339],[117.74927064,27.81603203],[117.75497325,27.83188442],[117.769635,27.83788617],[117.78294296,27.85573573],[117.77805423,27.86934172],[117.78555501,27.88352548],[117.78252319,27.90041073],[117.79345753,27.90341864],[117.80822699,27.92243269],[117.8321593,27.93056066],[117.85086757,27.94901716],[117.86038108,27.93919527],[117.88876522,27.95091301],[117.9056289,27.95383144],[117.9143508,27.96569441],[117.92778218,27.97009287],[117.9365431,27.97899821],[117.94986044,27.97417589],[117.95955984,27.96500291],[117.9738596,27.9689758],[117.99231759,27.99495144],[118.00071793,27.98417692],[118.02947252,27.99159851],[118.03755772,27.98156279],[118.0445279,27.98510338],[118.06109052,27.98410133],[118.06580112,27.9705142],[118.08318718,27.96722348],[118.08984408,27.97270383],[118.08493048,27.9860949],[118.09051143,28.00904677],[118.10596376,28.01640447],[118.11709648,28.01484772],[118.12461318,28.01959191],[118.11719774,28.03299853],[118.11535956,28.04493261],[118.13023245,28.05672628],[118.15190245,28.06570516],[118.17777143,28.05490013],[118.19467216,28.05299541],[118.20617078,28.06159778],[118.22124913,28.06131489],[118.2384338,28.07963254],[118.24811563,28.07169726],[118.25976042,28.08141133],[118.2954623,28.08852544],[118.30623505,28.09486973],[118.31796978,28.09392807],[118.3360507,28.08758768],[118.3508973,28.09386406],[118.35422488,28.11118515],[118.35233458,28.12807003],[118.35904988,28.1477545],[118.35555136,28.16025592],[118.37434782,28.17066124],[118.36865178,28.1786142],[118.37053656,28.18977582],[118.35216301,28.19597969],[118.33379273,28.1966865],[118.32964681,28.20995621],[118.3185762,28.21345129],[118.30715599,28.22450312],[118.33926439,28.23787411],[118.34710111,28.24790361],[118.34605502,28.25605919],[118.35965146,28.25687501],[118.36777606,28.26912556],[118.38351079,28.26972035],[118.38842335,28.27662008],[118.41759507,28.29444698],[118.42869033,28.29167807],[118.44110703,28.29636559],[118.4613743,28.30967226],[118.46720726,28.32138231],[118.46441347,28.33064978],[118.46937332,28.34115899],[118.46479693,28.35772113],[118.44825578,28.38885386],[118.43582136,28.39458237],[118.43487203,28.41513457],[118.44633576,28.41664935],[118.45657297,28.44454342],[118.45819631,28.45900699],[118.47307044,28.47773539],[118.46703772,28.48460795],[118.45037859,28.47961509],[118.43632475,28.49365772],[118.4116983,28.49835829],[118.43691085,28.51058551],[118.44068321,28.51850836],[118.42010798,28.52592724],[118.41612923,28.55190142],[118.40709866,28.5588993],[118.40592603,28.57607121],[118.41140416,28.58644411],[118.40805469,28.61142166],[118.42017416,28.61430991],[118.42888531,28.62881756],[118.41681748,28.64949015],[118.42657637,28.65288273],[118.42764373,28.66704869],[118.42294664,28.68435525],[118.40951332,28.68960803],[118.41168413,28.69629895],[118.3871568,28.71353299],[118.39685928,28.71732366],[118.39003539,28.72629915],[118.38438686,28.74770733],[118.37700112,28.7923447],[118.36847799,28.79906133],[118.36813122,28.80705078],[118.35185944,28.81829336],[118.32865034,28.81712232],[118.32099851,28.82200483],[118.30072234,28.82670301],[118.29174498,28.83609638],[118.30000013,28.84362246],[118.29199652,28.85128399],[118.28326733,28.87056248],[118.2765579,28.89455168],[118.26937897,28.90566954],[118.26645723,28.92031253],[118.25182806,28.92640289],[118.23256271,28.92169685],[118.22106575,28.91462496],[118.19644766,28.90690745],[118.1882069,28.91064306],[118.19181761,28.91950108],[118.20251978,28.92362496],[118.22301736,28.94530941],[118.19417069,28.95887085],[118.18158734,28.98000466],[118.15989857,28.98968739],[118.14097053,28.98206622],[118.12833057,28.98650287],[118.11991657,28.99840211],[118.12714147,29.01104017],[118.12201473,29.01878829],[118.10926351,29.01210011],[118.10489678,28.99432174],[118.09459166,28.99310572],[118.08287812,29.01573266],[118.08258753,29.03352899],[118.0667034,29.0474292],[118.06014624,29.05667764],[118.0724427,29.06610844],[118.06969132,29.07869096],[118.04649431,29.09080567],[118.03977907,29.09089849],[118.0308378,29.10137556],[118.04673451,29.12073604],[118.0336595,29.12798787],[118.03855573,29.1419251],[118.03842282,29.16047372],[118.02537654,29.16674012],[118.02350663,29.1737163],[118.0359478,29.20139416],[118.03645693,29.21384701],[118.07709503,29.22070974],[118.07706019,29.23834025],[118.0702027,29.24868294],[118.07364829,29.26136285],[118.07256665,29.29373935],[118.09716759,29.28640175],[118.1079311,29.29522965],[118.13090959,29.28659397],[118.14364173,29.28985637],[118.16284506,29.28389637],[118.16211208,29.29430749],[118.17410598,29.30177205],[118.16211152,29.31725226],[118.17435654,29.32398903],[118.17751107,29.33345498],[118.18840845,29.34291896],[118.20185342,29.34630448],[118.20331399,29.36222781],[118.1982526,29.37036557],[118.20301128,29.37964033],[118.18558808,29.393243],[118.18770402,29.39686836]]]},"properties":{"地名":"江西省","区划码":"360000","name":"Jiangxi","id":"360000","source":"https://raw.githubusercontent.com/BarbarossaWang/cn-atlas/main/provinces.json"}}]}